NORAD_CAT_ID,OBJECT_NAME,OBJECT_TYPE,EPOCH,MEAN_MOTION,ECCENTRICITY,INCLINATION,RA_OF_ASC_NODE,ARG_OF_PERICENTER,MEAN_ANOMALY,BSTAR,MEAN_MOTION_DOT,MEAN_MOTION_DDOT,TLE_LINE0,TLE_LINE1,TLE_LINE2,SEMIMAJOR_AXIS,PERIOD,APOGEE,PERIGEE,DECAYED
53283.0,STARLINK-4175,PAYLOAD,2023-02-24 13:06:40,15.08857531,0.000116,53.217,123.258,91.8542,268.2583,0.001239,0.00019495,0.0,0 STARLINK-4175,1 53283U 22086AT  23055.54630291  .00019495  00000-0  12390-2 0  9999,2 53283  53.2170 123.2580 0001160  91.8542 268.2583 15.08857531 33754,6917.827,95.436,540.494,538.889,0.0
53283.0,STARLINK-4175,PAYLOAD,2023-02-24 14:42:03,15.08862963,0.0001091,53.2168,122.9618,94.8279,265.2838,0.0014988,0.00023661,0.0,0 STARLINK-4175,1 53283U 22086AT  23055.61254161  .00023661  00000-0  14988-2 0  9990,2 53283  53.2168 122.9618 0001091  94.8279 265.2838 15.08862963 33599,6917.81,95.436,540.43,538.92,0.0
53283.0,STARLINK-4175,PAYLOAD,2023-02-24 21:03:36,15.08837836,0.000124,53.2172,121.7727,87.6273,272.4861,-0.000316,-5.313e-05,0.0,0 STARLINK-4175,1 53283U 22086AT  23055.87750436 -.00005313  00000-0 -31600-3 0  9991,2 53283  53.2172 121.7727 0001240  87.6273 272.4861 15.08837836 33634,6917.887,95.438,540.61,538.894,0.0
53283.0,STARLINK-4175,PAYLOAD,2023-02-25 12:57:28,15.08828797,0.0001214,53.2164,118.7989,77.8614,282.2514,0.0011662,0.00018315,0.0,0 STARLINK-4175,1 53283U 22086AT  23056.53991394  .00018315  00000-0  11662-2 0  9994,2 53283  53.2164 118.7989 0001214  77.8614 282.2514 15.08828797 33902,6917.915,95.438,540.619,538.94,0.0
53283.0,STARLINK-4175,PAYLOAD,2023-02-25 20:54:24,15.0884206,0.000116,53.2164,117.3114,81.2135,278.8988,0.00097842,0.00015319,0.0,0 STARLINK-4175,1 53283U 22086AT  23056.87111404  .00015319  00000-0  97842-3 0  9993,2 53283  53.2164 117.3114 0001160  81.2135 278.8988 15.08842060 33954,6917.874,95.437,540.542,538.937,0.0
53283.0,STARLINK-4175,PAYLOAD,2023-02-26 03:15:56,15.08849785,0.0001215,53.2164,116.1216,77.4402,282.6726,0.0011975,0.00018827,0.0,0 STARLINK-4175,1 53283U 22086AT  23057.13607383  .00018827  00000-0  11975-2 0  9998,2 53283  53.2164 116.1216 0001215  77.4402 282.6726 15.08849785 33829,6917.85,95.437,540.556,538.875,0.0
53283.0,STARLINK-4175,PAYLOAD,2023-02-26 08:02:05,15.08867506,0.0001284,53.2166,115.2304,78.48,281.6336,0.0015719,0.00024836,0.0,0 STARLINK-4175,1 53283U 22086AT  23057.33478965  .00024836  00000-0  15719-2 0  9999,2 53283  53.2166 115.2304 0001284  78.4800 281.6336 15.08867506 33858,6917.796,95.436,540.55,538.773,0.0
53283.0,STARLINK-4175,PAYLOAD,2023-02-26 11:12:51,15.08875094,0.0001216,53.2162,114.6358,76.99,283.1228,0.0017704,0.00028027,0.0,0 STARLINK-4175,1 53283U 22086AT  23057.46726693  .00028027  00000-0  17704-2 0  9999,2 53283  53.2162 114.6358 0001216  76.9900 283.1228 15.08875094 34045,6917.773,95.435,540.479,538.797,0.0
53283.0,STARLINK-4175,PAYLOAD,2023-02-26 20:45:10,15.08835275,0.0001153,53.2163,112.8512,101.6684,258.4437,-0.00048559,-8.007e-05,0.0,0 STARLINK-4175,1 53283U 22086AT  23057.86470762 -.00008007  00000-0 -48559-3 0  9997,2 53283  53.2163 112.8512 0001153 101.6684 258.4437 15.08835275 34104,6917.895,95.438,540.557,538.962,0.0
53283.0,STARLINK-4175,PAYLOAD,2023-02-27 03:06:43,15.0882777,0.0001064,53.2168,111.6607,120.3512,239.7586,0.00026448,3.923e-05,0.0,0 STARLINK-4175,1 53283U 22086AT  23058.12966919  .00003923  00000-0  26448-3 0  9994,2 53283  53.2168 111.6607 0001064 120.3512 239.7586 15.08827770 33972,6917.918,95.438,540.519,539.047,0.0
53283.0,STARLINK-4175,PAYLOAD,2023-02-27 15:49:48,15.08899132,0.0001148,53.2157,109.2831,98.0173,262.095,0.0051332,0.00082498,0.0,0 STARLINK-4175,1 53283U 22086AT  23058.65958565  .00082498  00000-0  51332-2 0  9993,2 53283  53.2157 109.2831 0001148  98.0173 262.0950 15.08899132 34054,6917.7,95.434,540.359,538.771,0.0
53283.0,STARLINK-4175,PAYLOAD,2023-02-27 20:35:57,15.08840453,6.54e-05,53.216,108.3908,99.915,260.1915,0.00044929,6.87e-05,0.0,0 STARLINK-4175,1 53283U 22086AT  23058.85830832  .00006870  00000-0  44929-3 0  9996,2 53283  53.2160 108.3908 0000654  99.9150 260.1915 15.08840453 34253,6917.879,95.438,540.196,539.292,0.0
53283.0,STARLINK-4175,PAYLOAD,2023-02-28 02:57:30,15.08849385,9.8e-05,53.2159,107.2015,92.2047,267.9057,0.0014118,0.00022258,0.0,0 STARLINK-4175,1 53283U 22086AT  23059.12327039  .00022258  00000-0  14118-2 0  9991,2 53283  53.2159 107.2015 0000980  92.2047 267.9057 15.08849385 34122,6917.852,95.437,540.395,539.039,0.0
53283.0,STARLINK-4175,PAYLOAD,2023-02-28 09:19:03,15.08863057,0.0001064,53.2164,106.0115,83.4134,276.698,0.0023813,0.00037838,0.0,0 STARLINK-4175,1 53283U 22086AT  23059.38822963  .00037838  00000-0  23813-2 0  9997,2 53283  53.2164 106.0115 0001064  83.4134 276.6980 15.08863057 34336,6917.81,95.436,540.411,538.939,0.0
53283.0,STARLINK-4175,PAYLOAD,2023-02-28 20:26:45,15.08848574,0.0001522,53.2172,103.9305,60.3885,299.7259,0.0012441,0.00019572,0.0,0 STARLINK-4175,1 53283U 22086AT  23059.85191469  .00019572  00000-0  12441-2 0  9999,2 53283  53.2172 103.9305 0001522  60.3885 299.7259 15.08848574 34408,6917.854,95.437,540.772,538.666,0.0
53283.0,STARLINK-4175,PAYLOAD,2023-03-01 07:34:28,15.08809593,0.000147,53.2176,101.8497,66.1307,293.9839,0.0009858,0.00015423,0.0,0 STARLINK-4175,1 53283U 22086AT  23060.31560649  .00015423  00000-0  98580-3 0  9992,2 53283  53.2176 101.8497 0001470  66.1307 293.9839 15.08809593 34303,6917.973,95.439,540.855,538.821,0.0
53283.0,STARLINK-4175,PAYLOAD,2023-03-01 12:20:38,15.08815869,0.0001641,53.2175,100.9568,73.512,286.6053,0.0014183,0.00022341,0.0,0 STARLINK-4175,1 53283U 22086AT  23060.51433091  .00022341  00000-0  14183-2 0  9997,2 53283  53.2175 100.9568 0001641  73.5120 286.6053 15.08815869 34508,6917.954,95.439,540.954,538.684,0.0
53283.0,STARLINK-4175,PAYLOAD,2023-03-02 13:46:47,15.0887594,0.0001697,53.2179,96.1991,73.7468,286.371,0.0016363,0.00025875,0.0,0 STARLINK-4175,1 53283U 22086AT  23061.57416416  .00025875  00000-0  16363-2 0  9993,2 53283  53.2179  96.1991 0001697  73.7468 286.3710 15.08875940 34497,6917.771,95.435,540.809,538.462,0.0
53283.0,STARLINK-4175,PAYLOAD,2023-03-03 08:51:24,15.08885234,0.0001676,53.2184,92.6318,93.4138,266.7046,0.0020666,0.00032796,0.0,0 STARLINK-4175,1 53283U 22086AT  23062.36903313  .00032796  00000-0  20666-2 0  9999,2 53283  53.2184  92.6318 0001676  93.4138 266.7046 15.08885234 34612,6917.742,95.435,540.767,538.448,0.0
53283.0,STARLINK-4175,PAYLOAD,2023-03-03 12:02:10,15.08890028,0.000182,53.2185,92.0367,67.2702,292.8483,0.0020659,0.00032789,0.0,0 STARLINK-4175,1 53283U 22086AT  23062.50151077  .00032789  00000-0  20659-2 0  9991,2 53283  53.2185  92.0367 0001820  67.2702 292.8483 15.08890028 34801,6917.727,95.434,540.852,538.333,0.0
53283.0,STARLINK-4175,PAYLOAD,2023-03-03 18:23:43,15.08839846,0.0002026,53.2189,90.8462,89.1319,270.9905,0.00024179,3.562e-05,0.0,0 STARLINK-4175,1 53283U 22086AT  23062.76647389  .00003562  00000-0  24179-3 0  9994,2 53283  53.2189  90.8462 0002026  89.1319 270.9905 15.08839846 34675,6917.881,95.438,541.147,538.344,0.0
53283.0,STARLINK-4175,PAYLOAD,2023-03-04 07:06:48,15.08856369,0.0001366,53.2182,88.468,95.9352,264.1796,0.0019383,0.00030709,0.0,0 STARLINK-4175,1 53283U 22086AT  23063.29639106  .00030709  00000-0  19383-2 0  9994,2 53283  53.2182  88.4680 0001366  95.9352 264.1796 15.08856369 34921,6917.83,95.437,540.64,538.75,0.0
53283.0,STARLINK-4175,PAYLOAD,2023-03-04 13:28:20,15.08868053,0.000139,53.2179,87.2784,90.1223,269.9929,0.0021751,0.00034525,0.0,0 STARLINK-4175,1 53283U 22086AT  23063.56134819  .00034525  00000-0  21751-2 0  9997,2 53283  53.2179  87.2784 0001390  90.1223 269.9929 15.08868053 34799,6917.795,95.436,540.621,538.698,0.0
53283.0,STARLINK-4175,PAYLOAD,2023-03-05 02:11:26,15.08827986,0.0001958,53.218,84.8967,119.0647,241.0541,0.00065245,0.00010108,0.0,0 STARLINK-4175,1 53283U 22086AT  23064.09127536  .00010108  00000-0  65245-3 0  9992,2 53283  53.2180  84.8967 0001958 119.0647 241.0541 15.08827986 34878,6917.917,95.438,541.137,538.428,0.0
53283.0,STARLINK-4175,PAYLOAD,2023-03-05 08:32:58,15.0884154,0.0001393,53.2174,83.7101,104.094,256.0207,0.0019915,0.0003155,0.0,0 STARLINK-4175,1 53283U 22086AT  23064.35623783  .00031550  00000-0  19915-2 0  9992,2 53283  53.2174  83.7101 0001393 104.0940 256.0207 15.08841540 35083,6917.876,95.437,540.704,538.777,0.0
53283.0,STARLINK-4175,PAYLOAD,2023-03-05 18:05:17,15.08849822,0.0001485,53.2176,81.9259,88.4784,271.6379,0.0013461,0.00021206,0.0,0 STARLINK-4175,1 53283U 22086AT  23064.75367864  .00021206  00000-0  13461-2 0  9998,2 53283  53.2176  81.9259 0001485  88.4784 271.6379 15.08849822 35143,6917.85,95.437,540.743,538.688,0.0
53283.0,STARLINK-4175,PAYLOAD,2023-03-06 05:12:59,15.08855503,0.0001306,53.2176,79.8438,96.4134,263.7007,0.0016817,0.00026589,0.0,0 STARLINK-4175,1 53283U 22086AT  23065.21735750  .00026589  00000-0  16817-2 0  9990,2 53283  53.2176  79.8438 0001306  96.4134 263.7007 15.08855503 35040,6917.833,95.437,540.601,538.795,0.0
53283.0,STARLINK-4175,PAYLOAD,2023-03-06 13:09:54,15.08871934,0.0001455,53.2179,78.3562,93.5491,266.5668,0.0018422,0.00029178,0.0,0 STARLINK-4175,1 53283U 22086AT  23065.54855260  .00029178  00000-0  18422-2 0  9996,2 53283  53.2179  78.3562 0001455  93.5491 266.5668 15.08871934 35268,6917.783,95.436,540.654,538.641,0.0
53283.0,STARLINK-4175,PAYLOAD,2023-03-07 06:39:10,15.08830655,0.0001417,53.2174,75.0873,100.593,259.5222,-9.9986e-06,-4.47e-06,0.0,0 STARLINK-4175,1 53283U 22086AT  23066.27720220 -.00000447  00000-0 -99986-5 0  9991,2 53283  53.2174  75.0873 0001417 100.5930 259.5222 15.08830655 35204,6917.909,95.438,540.754,538.794,0.0
53283.0,STARLINK-4175,PAYLOAD,2023-03-07 17:46:52,15.08838405,0.0001077,53.2168,73.0043,86.1905,273.9211,0.00035861,5.424e-05,0.0,0 STARLINK-4175,1 53283U 22086AT  23066.74088549  .00005424  00000-0  35861-3 0  9992,2 53283  53.2168  73.0043 0001077  86.1905 273.9211 15.08838405 35442,6917.885,95.438,540.495,539.005,0.0
